*******************************************************************************
 Revised: April 12, 2021       Solar System Barycenter                        0

 Dynamical point 
 ---------------
 The center of mass for the solar system. See object 10 for Sun ephemeris.
*******************************************************************************


*******************************************************************************
Ephemeris / WWW_USER Wed Feb  2 10:59:29 2022 Pasadena, USA      / Horizons    
*******************************************************************************
Target body name: Solar System Barycenter (0)     {source: DE441}
Center body name: Sun (10)                        {source: DE441}
Center-site name: BODYCENTRIC
*******************************************************************************
Start time      : A.D. 2011-Jan-01 00:09:00.0000 UT      
Stop  time      : A.D. 2011-Dec-31 23:59:00.0000 UT      
Step-size       : 40 minutes
*******************************************************************************
Target pole/equ : MARSIAU                         {East-longitude positive}
Target radii    : 696000.0 x 696000.0 x 696000.0 k{Equator, meridian, pole}    
Center geodetic : 0.00000000,0.00000000,0.0000000 {E-lon(deg),Lat(deg),Alt(km)}
Center cylindric: 0.00000000,0.00000000,0.0000000 {E-lon(deg),Dxy(km),Dz(km)}
Center pole/equ : IAU_SUN                         {East-longitude positive}
Center radii    : 696000.0 x 696000.0 x 696000.0 k{Equator, meridian, pole}    
Target primary  : Sun
Vis. interferer : None
Rel. light bend : Sun                             {source: DE441}
Rel. lght bnd GM: 1.3271E+11 km^3/s^2                                          
Atmos refraction: NO (AIRLESS)
RA format       : HMS
Time format     : CAL 
EOP file        : eop.220131.p220426                                           
EOP coverage    : DATA-BASED 1962-JAN-20 TO 2022-JAN-31. PREDICTS-> 2022-APR-25
Units conversion: 1 au= 149597870.700 km, c= 299792.458 km/s, 1 day= 86400.0 s 
Table cut-offs 1: Elevation (-90.0deg=NO ),Airmass     n.a.    , Daylight (NO )
Table cut-offs 2: Solar elongation (  0.0,180.0=NO ),Local Hour Angle( 0.0=NO )
Table cut-offs 3: RA/DEC angular rate (     0.0=NO )                           
*******************************************************************************
 Date__(UT)__HR:MN     R.A._____(ICRF)_____DEC             delta      deldot
****************************************************************************
$$SOE
 2011-Nov-14 22:49     01 05 51.59 +06 57 14.1  0.00360670984836  -0.0036678
 2011-Nov-14 23:29     01 05 52.17 +06 57 17.8  0.00360665100575  -0.0036678
 2011-Nov-15 00:09     01 05 52.75 +06 57 21.5  0.00360659216216  -0.0036679
 2011-Nov-15 00:49     01 05 53.33 +06 57 25.2  0.00360653331762  -0.0036680
 2011-Nov-15 01:29     01 05 53.91 +06 57 28.9  0.00360647447211  -0.0036680
 2011-Nov-15 02:09     01 05 54.49 +06 57 32.6  0.00360641562563  -0.0036681
 2011-Nov-15 02:49     01 05 55.07 +06 57 36.2  0.00360635677818  -0.0036681
 2011-Nov-15 03:29     01 05 55.65 +06 57 39.9  0.00360629792977  -0.0036682
 2011-Nov-15 04:09     01 05 56.23 +06 57 43.6  0.00360623908038  -0.0036683
 2011-Nov-15 04:49     01 05 56.82 +06 57 47.3  0.00360618023003  -0.0036683
 2011-Nov-15 05:29     01 05 57.40 +06 57 51.0  0.00360612137871  -0.0036684
 2011-Nov-15 06:09     01 05 57.98 +06 57 54.7  0.00360606252641  -0.0036684
 2011-Nov-15 06:49     01 05 58.56 +06 57 58.4  0.00360600367314  -0.0036685
 2011-Nov-15 07:29     01 05 59.14 +06 58 02.1  0.00360594481890  -0.0036686
 2011-Nov-15 08:09     01 05 59.72 +06 58 05.8  0.00360588596368  -0.0036686
 2011-Nov-15 08:49     01 06 00.30 +06 58 09.5  0.00360582710749  -0.0036687
 2011-Nov-15 09:29     01 06 00.88 +06 58 13.2  0.00360576825032  -0.0036687
 2011-Nov-15 10:09     01 06 01.46 +06 58 16.9  0.00360570939218  -0.0036688
 2011-Nov-15 10:49     01 06 02.05 +06 58 20.6  0.00360565053306  -0.0036689
 2011-Nov-15 11:29     01 06 02.63 +06 58 24.2  0.00360559167296  -0.0036689
 2011-Nov-15 12:09     01 06 03.21 +06 58 27.9  0.00360553281188  -0.0036690
 2011-Nov-15 12:49     01 06 03.79 +06 58 31.6  0.00360547394982  -0.0036690
 2011-Nov-15 13:29     01 06 04.37 +06 58 35.3  0.00360541508678  -0.0036691
 2011-Nov-15 14:09     01 06 04.95 +06 58 39.0  0.00360535622275  -0.0036692
 2011-Nov-15 14:49     01 06 05.53 +06 58 42.7  0.00360529735775  -0.0036692
 2011-Nov-15 15:29     01 06 06.11 +06 58 46.4  0.00360523849176  -0.0036693
 2011-Nov-15 16:09     01 06 06.70 +06 58 50.1  0.00360517962478  -0.0036694
 2011-Nov-15 16:49     01 06 07.28 +06 58 53.8  0.00360512075682  -0.0036694
 2011-Nov-15 17:29     01 06 07.86 +06 58 57.5  0.00360506188788  -0.0036695
 2011-Nov-15 18:09     01 06 08.44 +06 59 01.2  0.00360500301794  -0.0036695
 2011-Nov-15 18:49     01 06 09.02 +06 59 04.9  0.00360494414702  -0.0036696
 2011-Nov-15 19:29     01 06 09.60 +06 59 08.6  0.00360488527511  -0.0036697
 2011-Nov-15 20:09     01 06 10.18 +06 59 12.3  0.00360482640221  -0.0036697
 2011-Nov-15 20:49     01 06 10.76 +06 59 16.0  0.00360476752832  -0.0036698
 2011-Nov-15 21:29     01 06 11.35 +06 59 19.6  0.00360470865344  -0.0036698
 2011-Nov-15 22:09     01 06 11.93 +06 59 23.3  0.00360464977757  -0.0036699
 2011-Nov-15 22:49     01 06 12.51 +06 59 27.0  0.00360459090070  -0.0036700
 2011-Nov-15 23:29     01 06 13.09 +06 59 30.7  0.00360453202284  -0.0036700
 2011-Nov-16 00:09     01 06 13.67 +06 59 34.4  0.00360447314398  -0.0036701
 2011-Nov-16 00:49     01 06 14.25 +06 59 38.1  0.00360441426413  -0.0036702
 2011-Nov-16 01:29     01 06 14.83 +06 59 41.8  0.00360435538328  -0.0036702
 2011-Nov-16 02:09     01 06 15.42 +06 59 45.5  0.00360429650144  -0.0036703
 2011-Nov-16 02:49     01 06 16.00 +06 59 49.2  0.00360423761859  -0.0036703
 2011-Nov-16 03:29     01 06 16.58 +06 59 52.9  0.00360417873475  -0.0036704
 2011-Nov-16 04:09     01 06 17.16 +06 59 56.6  0.00360411984991  -0.0036705
 2011-Nov-16 04:49     01 06 17.74 +07 00 00.3  0.00360406096406  -0.0036705
 2011-Nov-16 05:29     01 06 18.32 +07 00 04.0  0.00360400207722  -0.0036706
 2011-Nov-16 06:09     01 06 18.91 +07 00 07.7  0.00360394318937  -0.0036707
 2011-Nov-16 06:49     01 06 19.49 +07 00 11.4  0.00360388430052  -0.0036707
 2011-Nov-16 07:29     01 06 20.07 +07 00 15.1  0.00360382541066  -0.0036708
 2011-Nov-16 08:09     01 06 20.65 +07 00 18.7  0.00360376651980  -0.0036708
 2011-Nov-16 08:49     01 06 21.23 +07 00 22.4  0.00360370762793  -0.0036709
 2011-Nov-16 09:29     01 06 21.81 +07 00 26.1  0.00360364873506  -0.0036710
 2011-Nov-16 10:09     01 06 22.40 +07 00 29.8  0.00360358984118  -0.0036710
 2011-Nov-16 10:49     01 06 22.98 +07 00 33.5  0.00360353094629  -0.0036711
 2011-Nov-16 11:29     01 06 23.56 +07 00 37.2  0.00360347205039  -0.0036712
 2011-Nov-16 12:09     01 06 24.14 +07 00 40.9  0.00360341315348  -0.0036712
 2011-Nov-16 12:49     01 06 24.72 +07 00 44.6  0.00360335425556  -0.0036713
 2011-Nov-16 13:29     01 06 25.30 +07 00 48.3  0.00360329535662  -0.0036713
 2011-Nov-16 14:09     01 06 25.89 +07 00 52.0  0.00360323645668  -0.0036714
 2011-Nov-16 14:49     01 06 26.47 +07 00 55.7  0.00360317755572  -0.0036715
 2011-Nov-16 15:29     01 06 27.05 +07 00 59.4  0.00360311865374  -0.0036715
 2011-Nov-16 16:09     01 06 27.63 +07 01 03.1  0.00360305975075  -0.0036716
 2011-Nov-16 16:49     01 06 28.21 +07 01 06.8  0.00360300084674  -0.0036717
 2011-Nov-16 17:29     01 06 28.79 +07 01 10.5  0.00360294194172  -0.0036717
 2011-Nov-16 18:09     01 06 29.38 +07 01 14.2  0.00360288303568  -0.0036718
 2011-Nov-16 18:49     01 06 29.96 +07 01 17.9  0.00360282412862  -0.0036719
 2011-Nov-16 19:29     01 06 30.54 +07 01 21.6  0.00360276522054  -0.0036719
 2011-Nov-16 20:09     01 06 31.12 +07 01 25.3  0.00360270631143  -0.0036720
 2011-Nov-16 20:49     01 06 31.70 +07 01 28.9  0.00360264740131  -0.0036720
 2011-Nov-16 21:29     01 06 32.29 +07 01 32.6  0.00360258849016  -0.0036721
 2011-Nov-16 22:09     01 06 32.87 +07 01 36.3  0.00360252957799  -0.0036722
 2011-Nov-16 22:49     01 06 33.45 +07 01 40.0  0.00360247066480  -0.0036722
 2011-Nov-16 23:29     01 06 34.03 +07 01 43.7  0.00360241175058  -0.0036723
 2011-Nov-17 00:09     01 06 34.61 +07 01 47.4  0.00360235283534  -0.0036724
 2011-Nov-17 00:49     01 06 35.20 +07 01 51.1  0.00360229391907  -0.0036724
 2011-Nov-17 01:29     01 06 35.78 +07 01 54.8  0.00360223500177  -0.0036725
 2011-Nov-17 02:09     01 06 36.36 +07 01 58.5  0.00360217608344  -0.0036726
 2011-Nov-17 02:49     01 06 36.94 +07 02 02.2  0.00360211716408  -0.0036726
 2011-Nov-17 03:29     01 06 37.52 +07 02 05.9  0.00360205824369  -0.0036727
 2011-Nov-17 04:09     01 06 38.11 +07 02 09.6  0.00360199932228  -0.0036727
 2011-Nov-17 04:49     01 06 38.69 +07 02 13.3  0.00360194039983  -0.0036728
 2011-Nov-17 05:29     01 06 39.27 +07 02 17.0  0.00360188147634  -0.0036729
 2011-Nov-17 06:09     01 06 39.85 +07 02 20.7  0.00360182255182  -0.0036729
 2011-Nov-17 06:49     01 06 40.43 +07 02 24.4  0.00360176362627  -0.0036730
 2011-Nov-17 07:29     01 06 41.02 +07 02 28.1  0.00360170469968  -0.0036731
 2011-Nov-17 08:09     01 06 41.60 +07 02 31.8  0.00360164577206  -0.0036731
 2011-Nov-17 08:49     01 06 42.18 +07 02 35.5  0.00360158684340  -0.0036732
 2011-Nov-17 09:29     01 06 42.76 +07 02 39.2  0.00360152791370  -0.0036733
 2011-Nov-17 10:09     01 06 43.34 +07 02 42.9  0.00360146898296  -0.0036733
 2011-Nov-17 10:49     01 06 43.93 +07 02 46.6  0.00360141005118  -0.0036734
 2011-Nov-17 11:29     01 06 44.51 +07 02 50.2  0.00360135111837  -0.0036735
 2011-Nov-17 12:09     01 06 45.09 +07 02 53.9  0.00360129218450  -0.0036735
 2011-Nov-17 12:49     01 06 45.67 +07 02 57.6  0.00360123324960  -0.0036736
 2011-Nov-17 13:29     01 06 46.25 +07 03 01.3  0.00360117431366  -0.0036737
 2011-Nov-17 14:09     01 06 46.84 +07 03 05.0  0.00360111537667  -0.0036737
 2011-Nov-17 14:49     01 06 47.42 +07 03 08.7  0.00360105643863  -0.0036738
